GLOBALSTAR M069         
1 31573U 07020C   26192.04180941 -.00000065  00000+0  25893-3 0  9996
2 31573  52.0007 184.6078 0001771 201.1877 199.3663 12.23472119881726
GLOBALSTAR M072         
1 31574U 07020D   26192.06538507 -.00000081  00000+0  45007-4 0  9992
2 31574  51.9944  36.6754 0001639  27.2046 140.2981 11.91658630877822
GLOBALSTAR M066         
1 32265U 07048C   26192.43708122 -.00000058  00000+0  31098-3 0  9991
2 32265  51.9610 348.2986 0005632  94.3760 282.5512 12.30389073863218
GLOBALSTAR M079         
1 37188U 10054A   26192.51460295 -.00000103  00000+0  31893-5 0  9992
2 37188  52.0050  34.6138 0001104  71.3090 302.7968 12.62266411725620
GLOBALSTAR M074         
1 37189U 10054B   26190.35881330 -.00000102  00000+0  11849-4 0  9997
2 37189  52.0028  40.4384 0000857  84.4744  88.6853 12.62262010725959
GLOBALSTAR M076         
1 37190U 10054C   26192.04652259 -.00000093  00000+0  59652-4 0  9996
2 37190  52.0040  35.5057 0001093  83.6838  82.2987 12.62262183725886
GLOBALSTAR M077         
1 37191U 10054D   26192.20560847 -.00000090  00000+0 -21220-3 0  9993
2 37191  51.9950 118.3324 0002340 217.9588 313.2859 11.67547721723940
GLOBALSTAR M075         
1 37192U 10054E   26192.05379315 -.00000106  00000+0 -10614-4 0  9999
2 37192  51.9948  77.5243 0000683  58.6019  80.8642 12.62267784724954
GLOBALSTAR M073         
1 37193U 10054F   26192.42482558 -.00000103  00000+0  24921-5 0  9998
2 37193  52.0080 350.5137 0001092  91.1242 293.5450 12.62266868726993
GLOBALSTAR M083         
1 37739U 11033A   26192.27922619 -.00000092  00000+0  66505-4 0  9992
2 37739  51.9873 299.1539 0000857 101.4025 282.6161 12.62264004695996
GLOBALSTAR M088         
1 37740U 11033B   26192.44253796 -.00000076  00000+0  15374-3 0  9995
2 37740  52.0186 205.1420 0000111 158.3750   6.7704 12.62269412691556
GLOBALSTAR M091         
1 37741U 11033C   26192.29122250 -.00000095  00000+0  49615-4 0  9996
2 37741  51.9974 168.5313 0000330  14.8734 122.9961 12.62264250692321
GLOBALSTAR M085         
1 37742U 11033D   26192.20099171 -.00000111  00000+0 -38071-4 0  9997
2 37742  52.0121 120.1192 0000698  34.1760 113.4988 12.62264330692826
GLOBALSTAR M081         
1 37743U 11033E   26192.22764943 -.00000119  00000+0 -82877-4 0  9997
2 37743  51.9951 122.4468 0000588  49.7130  98.9747 12.62265342692978
GLOBALSTAR M089         
1 37744U 11033F   26192.10899895 -.00000110  00000+0 -37333-4 0  9998
2 37744  51.9932  76.9626 0000665  85.2552  65.0707 12.62267544693806
GLOBALSTAR M084         
1 38040U 11080A   26192.33406170 -.00000097  00000+0  36683-4 0  9995
2 38040  52.0028 303.7724 0000939 123.2364 270.2173 12.62267887671816
GLOBALSTAR M080         
1 38041U 11080B   26192.30206757 -.00000096  00000+0  42198-4 0  9999
2 38041  52.0073 305.5959 0000293  73.4456 304.4222 12.62257323671930
GLOBALSTAR M082         
1 38042U 11080C   26192.49454983 -.00000080  00000+0  13160-3 0  9995
2 38042  52.0064 260.5143 0000225 107.7506 355.0535 12.62264039672660
GLOBALSTAR M092         
1 38043U 11080D   26192.45354060 -.00000088  00000+0  86925-4 0  9995
2 38043  52.0103 351.0356 0000817  97.6076 298.0690 12.62267696671112
GLOBALSTAR M090         
1 38044U 11080E   26191.23949641 -.00000081  00000+0  12812-3 0  9992
2 38044  52.0114 258.2983 0000451 107.2704 288.2798 12.62253056672621
GLOBALSTAR M086         
1 38045U 11080F   26192.20689402 -.00000084  00000+0  11173-3 0  9999
2 38045  51.9883 255.2431 0001597 105.9446 271.2032 12.62287709672690
GLOBALSTAR M097         
1 39072U 13005A   26192.39322411 -.00000099  00000+0  24850-4 0  9996
2 39072  52.0023 169.6499 0000330  35.3713 324.7176 12.62271439619965
GLOBALSTAR M093         
1 39073U 13005B   26192.36644138 -.00000097  00000+0  35001-4 0  9995
2 39073  52.0084 163.0872 0000558  38.9573 321.1334 12.62266337619914
GLOBALSTAR M094         
1 39074U 13005C   26192.04955463 -.00000111  00000+0 -38945-4 0  9995
2 39074  51.9959  78.1454 0000910  56.7753 303.3201 12.62264145621481
GLOBALSTAR M096         
1 39075U 13005D   26191.19205918 -.00000106  00000+0 -12180-4 0  9991
2 39075  52.0063 129.5750 0000628  32.6639 327.4266 12.62265688620291
GLOBALSTAR M078         
1 39076U 13005E   26192.43212037 -.00000081  00000+0  12824-3 0  9995
2 39076  51.9843 209.7782 0000746 326.8233  33.2587 12.62260100619077
GLOBALSTAR M095         
1 39077U 13005F   26192.45880873 -.00000075  00000+0  16109-3 0  9990
2 39077  52.0054 207.3351 0000329   8.7953 351.2919 12.62264154618931
GLOBALSTAR M087         
1 52888U 22064A   26192.47193691 -.00000104  00000+0  92232-6 0  9994
2 52888  52.0015 348.5191 0000941  80.2745 279.8228 12.62269306194208
